{
  "type": "FeatureCollection",
  "features": [
    {
      "type": "Feature",
      "properties": {
        "norad_id": 22490,
        "name": "SCD 1",
        "group": "resource",
        "lat": -2.2989509474136445,
        "lon": 37.32177991803002,
        "alt_km": 745.5950661534016,
        "timestamp": "2025-12-23T11:34:47.838375+00:00",
        "meta_object_name": "SCD 1",
        "meta_object_id": "1993-009B",
        "meta_epoch": "2025-12-22T16:44:45.352896",
        "meta_mean_motion": 14.46005268,
        "meta_eccentricity": 0.0042167,
        "meta_inclination": 24.9679,
        "meta_ra_of_asc_node": 217.2144,
        "meta_arg_of_pericenter": 70.2904,
        "meta_mean_anomaly": 341.2341,
        "meta_ephemeris_type": 0,
        "meta_classification_type": "U",
        "meta_norad_cat_id": 22490,
        "meta_element_set_no": 999,
        "meta_rev_at_epoch": 73554,
        "meta_bstar": 7.1091153e-05,
        "meta_mean_motion_dot": 4.45e-06,
        "meta_mean_motion_ddot": 0,
        "tle_line1": "1 22490U 93009B   25356.69774714  .00000445  00000+0  71091-4 0  9998",
        "tle_line2": "2 22490  24.9679 217.2144 0042167  70.2904 341.2341 14.46005268735547"
      },
      "geometry": {
        "type": "Point",
        "coordinates": [
          37.32177991803002,
          -2.2989509474136445
        ]
      }
    },
    {
      "type": "Feature",
      "properties": {
        "norad_id": 25397,
        "name": "TECHSAT 1B (GO-32)",
        "group": "resource",
        "lat": 34.880374419715835,
        "lon": 167.2810376243154,
        "alt_km": 808.5448607378803,
        "timestamp": "2025-12-23T11:34:47.838407+00:00",
        "meta_object_name": "TECHSAT 1B (GO-32)",
        "meta_object_id": "1998-043D",
        "meta_epoch": "2025-12-22T16:21:32.526144",
        "meta_mean_motion": 14.24379632,
        "meta_eccentricity": 0.00017569,
        "meta_inclination": 98.9931,
        "meta_ra_of_asc_node": 340.1236,
        "meta_arg_of_pericenter": 41.5231,
        "meta_mean_anomaly": 318.608,
        "meta_ephemeris_type": 0,
        "meta_classification_type": "U",
        "meta_norad_cat_id": 25397,
        "meta_element_set_no": 999,
        "meta_rev_at_epoch": 42620,
        "meta_bstar": 4.7894627e-05,
        "meta_mean_motion_dot": 6.4e-07,
        "meta_mean_motion_ddot": 0,
        "tle_line1": "1 25397U 98043D   25356.68162646  .00000064  00000+0  47895-4 0  9996",
        "tle_line2": "2 25397  98.9931 340.1236 0001756  41.5231 318.6080 14.24379632426202"
      },
      "geometry": {
        "type": "Point",
        "coordinates": [
          167.2810376243154,
          34.880374419715835
        ]
      }
    },
    {
      "type": "Feature",
      "properties": {
        "norad_id": 25504,
        "name": "SCD 2",
        "group": "resource",
        "lat": -6.172181307149279,
        "lon": -90.9205943217551,
        "alt_km": 746.8172236325654,
        "timestamp": "2025-12-23T11:34:47.838419+00:00",
        "meta_object_name": "SCD 2",
        "meta_object_id": "1998-060A",
        "meta_epoch": "2025-12-22T13:43:51.661344",
        "meta_mean_motion": 14.45428389,
        "meta_eccentricity": 0.00170381,
        "meta_inclination": 24.995,
        "meta_ra_of_asc_node": 81.268,
        "meta_arg_of_pericenter": 57.3141,
        "meta_mean_anomaly": 70.4523,
        "meta_ephemeris_type": 0,
        "meta_classification_type": "U",
        "meta_norad_cat_id": 25504,
        "meta_element_set_no": 999,
        "meta_rev_at_epoch": 43474,
        "meta_bstar": 6.2921219e-05,
        "meta_mean_motion_dot": 4.07e-06,
        "meta_mean_motion_ddot": 0,
        "tle_line1": "1 25504U 98060A   25356.57212571  .00000407  00000+0  62921-4 0  9994",
        "tle_line2": "2 25504  24.9950  81.2680 0017038  57.3141  70.4523 14.45428389434743"
      },
      "geometry": {
        "type": "Point",
        "coordinates": [
          -90.9205943217551,
          -6.172181307149279
        ]
      }
    },
    {
      "type": "Feature",
      "properties": {
        "norad_id": 25757,
        "name": "DLR-TUBSAT",
        "group": "resource",
        "lat": 2.982541854075414,
        "lon": -18.127052097005482,
        "alt_km": 729.7666307334648,
        "timestamp": "2025-12-23T11:34:47.838430+00:00",
        "meta_object_name": "DLR-TUBSAT",
        "meta_object_id": "1999-029B",
        "meta_epoch": "2025-12-17T13:22:10.787520",
        "meta_mean_motion": 14.52359578,
        "meta_eccentricity": 0.00141996,
        "meta_inclination": 98.6566,
        "meta_ra_of_asc_node": 336.2196,
        "meta_arg_of_pericenter": 177.8976,
        "meta_mean_anomaly": 182.2281,
        "meta_ephemeris_type": 0,
        "meta_classification_type": "U",
        "meta_norad_cat_id": 25757,
        "meta_element_set_no": 999,
        "meta_rev_at_epoch": 40688,
        "meta_bstar": 3.7650132e-05,
        "meta_mean_motion_dot": 1.05e-06,
        "meta_mean_motion_ddot": 0,
        "tle_line1": "1 25757U 99029B   25351.55706930  .00000105  00000+0  37650-4 0  9996",
        "tle_line2": "2 25757  98.6566 336.2196 0014199 177.8976 182.2281 14.52359578406886"
      },
      "geometry": {
        "type": "Point",
        "coordinates": [
          -18.127052097005482,
          2.982541854075414
        ]
      }
    },
    {
      "type": "Feature",
      "properties": {
        "norad_id": 25994,
        "name": "TERRA",
        "group": "resource",
        "lat": 35.39742391485314,
        "lon": 43.056069181581535,
        "alt_km": 685.8718275467763,
        "timestamp": "2025-12-23T11:34:47.838440+00:00",
        "meta_object_name": "TERRA",
        "meta_object_id": "1999-068A",
        "meta_epoch": "2025-12-23T01:49:01.909056",
        "meta_mean_motion": 14.60913111,
        "meta_eccentricity": 0.0003472,
        "meta_inclination": 97.9733,
        "meta_ra_of_asc_node": 48.3802,
        "meta_arg_of_pericenter": 73.79,
        "meta_mean_anomaly": 344.0181,
        "meta_ephemeris_type": 0,
        "meta_classification_type": "U",
        "meta_norad_cat_id": 25994,
        "meta_element_set_no": 999,
        "meta_rev_at_epoch": 38389,
        "meta_bstar": 0.00010782,
        "meta_mean_motion_dot": 4.83e-06,
        "meta_mean_motion_ddot": 0,
        "tle_line1": "1 25994U 99068A   25357.07571654  .00000483  00000+0  10782-3 0  9993",
        "tle_line2": "2 25994  97.9733  48.3802 0003472  73.7900 344.0181 14.60913111383895"
      },
      "geometry": {
        "type": "Point",
        "coordinates": [
          43.056069181581535,
          35.39742391485314
        ]
      }
    },
    {
      "type": "Feature",
      "properties": {
        "norad_id": 27004,
        "name": "MAROC-TUBSAT",
        "group": "resource",
        "lat": 54.03081135225542,
        "lon": -0.11936998632039557,
        "alt_km": 997.5825005514971,
        "timestamp": "2025-12-23T11:34:47.838451+00:00",
        "meta_object_name": "MAROC-TUBSAT",
        "meta_object_id": "2001-056D",
        "meta_epoch": "2025-12-22T08:59:06.016416",
        "meta_mean_motion": 13.70253386,
        "meta_eccentricity": 0.00192156,
        "meta_inclination": 99.7916,
        "meta_ra_of_asc_node": 164.9882,
        "meta_arg_of_pericenter": 234.5504,
        "meta_mean_anomaly": 186.9487,
        "meta_ephemeris_type": 0,
        "meta_classification_type": "U",
        "meta_norad_cat_id": 27004,
        "meta_element_set_no": 999,
        "meta_rev_at_epoch": 20197,
        "meta_bstar": 2.5339706e-05,
        "meta_mean_motion_dot": -2.4e-07,
        "meta_mean_motion_ddot": 0,
        "tle_line1": "1 27004U 01056D   25356.37437519 -.00000024  00000+0  25340-4 0  9999",
        "tle_line2": "2 27004  99.7916 164.9882 0019215 234.5504 186.9487 13.70253386201975"
      },
      "geometry": {
        "type": "Point",
        "coordinates": [
          -0.11936998632039557,
          54.03081135225542
        ]
      }
    },
    {
      "type": "Feature",
      "properties": {
        "norad_id": 27424,
        "name": "AQUA",
        "group": "resource",
        "lat": -52.68905789816239,
        "lon": -30.275828967797814,
        "alt_km": 695.2513362392538,
        "timestamp": "2025-12-23T11:34:47.838461+00:00",
        "meta_object_name": "AQUA",
        "meta_object_id": "2002-022A",
        "meta_epoch": "2025-12-23T02:23:06.539136",
        "meta_mean_motion": 14.61823033,
        "meta_eccentricity": 0.0001484,
        "meta_inclination": 98.4053,
        "meta_ra_of_asc_node": 318.1475,
        "meta_arg_of_pericenter": 109.241,
        "meta_mean_anomaly": 342.3415,
        "meta_ephemeris_type": 0,
        "meta_classification_type": "U",
        "meta_norad_cat_id": 27424,
        "meta_element_set_no": 999,
        "meta_rev_at_epoch": 25754,
        "meta_bstar": 0.00019103,
        "meta_mean_motion_dot": 9.05e-06,
        "meta_mean_motion_ddot": 0,
        "tle_line1": "1 27424U 02022A   25357.09938124  .00000905  00000+0  19103-3 0  9993",
        "tle_line2": "2 27424  98.4053 318.1475 0001484 109.2410 342.3415 14.61823033257549"
      },
      "geometry": {
        "type": "Point",
        "coordinates": [
          -30.275828967797814,
          -52.68905789816239
        ]
      }
    }
  ]
}